{
  "norad_id": 55160,
  "name": "ONEWEB-0619",
  "history": [
    {
      "epoch": "2026-03-28T20:01:51.465216Z",
      "apogee_km": 1194.8641500099366,
      "perigee_km": 1192.5444407106888,
      "latitude_deg": -1.5895969170506834e-06,
      "longitude_deg": -104.91611675922283,
      "height_km": 1196.5947507180047,
      "semi_major_axis_km": 7571.841295360312,
      "eccentricity": 0.00015318,
      "inclination_deg": 87.9187,
      "raan_deg": 21.7977,
      "arg_perigee_deg": 89.7241,
      "mean_anomaly_deg": 270.4066,
      "mean_motion_rev_day": 13.1765134
    },
    {
      "epoch": "2026-03-29T05:08:35.836224Z",
      "apogee_km": 1194.869582577826,
      "perigee_km": 1192.538969833011,
      "latitude_deg": 1.567403408131169e-05,
      "longitude_deg": 117.94947480782623,
      "height_km": 1196.5993941207976,
      "semi_major_axis_km": 7571.841276205419,
      "eccentricity": 0.0001539,
      "inclination_deg": 87.9188,
      "raan_deg": 21.7224,
      "arg_perigee_deg": 89.9553,
      "mean_anomaly_deg": 270.1755,
      "mean_motion_rev_day": 13.17651345
    },
    {
      "epoch": "2026-03-30T01:11:25.470240Z",
      "apogee_km": 1194.868350279322,
      "perigee_km": 1192.539252048884,
      "latitude_deg": -7.312769496478881e-05,
      "longitude_deg": 176.25375766743855,
      "height_km": 1196.6081759488968,
      "semi_major_axis_km": 7571.840801164102,
      "eccentricity": 0.0001538,
      "inclination_deg": 87.919,
      "raan_deg": 21.5568,
      "arg_perigee_deg": 90.4098,
      "mean_anomaly_deg": 269.7209,
      "mean_motion_rev_day": 13.17651469
    },
    {
      "epoch": "2026-03-30T04:50:07.192896Z",
      "apogee_km": 1194.8748116981278,
      "perigee_km": 1192.5313271966334,
      "latitude_deg": 1.8939991557694055e-05,
      "longitude_deg": 121.40012510451204,
      "height_km": 1196.6115545451216,
      "semi_major_axis_km": 7571.84006944738,
      "eccentricity": 0.00015475,
      "inclination_deg": 87.919,
      "raan_deg": 21.5267,
      "arg_perigee_deg": 90.6097,
      "mean_anomaly_deg": 269.5212,
      "mean_motion_rev_day": 13.1765166
    },
    {
      "epoch": "2026-03-30T06:39:28.062432Z",
      "apogee_km": 1194.8741150858477,
      "perigee_km": 1192.531387866742,
      "latitude_deg": 2.4707195485062636e-05,
      "longitude_deg": 93.97322307368002,
      "height_km": 1196.6114166903526,
      "semi_major_axis_km": 7571.839751476295,
      "eccentricity": 0.0001547,
      "inclination_deg": 87.919,
      "raan_deg": 21.5116,
      "arg_perigee_deg": 90.6187,
      "mean_anomaly_deg": 269.5122,
      "mean_motion_rev_day": 13.17651743
    },
    {
      "epoch": "2026-03-30T21:14:15.081792Z",
      "apogee_km": 1194.8798032755285,
      "perigee_km": 1192.5266267735033,
      "latitude_deg": 4.724745352311566e-05,
      "longitude_deg": -125.44185754574971,
      "height_km": 1196.6197475599324,
      "semi_major_axis_km": 7571.840215024516,
      "eccentricity": 0.00015539,
      "inclination_deg": 87.9192,
      "raan_deg": 21.3912,
      "arg_perigee_deg": 90.9997,
      "mean_anomaly_deg": 269.1313,
      "mean_motion_rev_day": 13.17651622
    },
    {
      "epoch": "2026-03-31T20:55:46.457472Z",
      "apogee_km": 1194.8936668698543,
      "perigee_km": 1192.514594386611,
      "latitude_deg": 5.411894010544473e-05,
      "longitude_deg": -121.99128581028239,
      "height_km": 1196.6301219169106,
      "semi_major_axis_km": 7571.841130628232,
      "eccentricity": 0.0001571,
      "inclination_deg": 87.9192,
      "raan_deg": 21.1955,
      "arg_perigee_deg": 91.4459,
      "mean_anomaly_deg": 268.6853,
      "mean_motion_rev_day": 13.17651383
    },
    {
      "epoch": "2026-04-01T07:51:51.680736Z",
      "apogee_km": 1194.913068648426,
      "perigee_km": 1192.4931085561075,
      "latitude_deg": 5.712815225059055e-05,
      "longitude_deg": 73.44747565060672,
      "height_km": 1196.6537583810234,
      "semi_major_axis_km": 7571.840088602266,
      "eccentricity": 0.0001598,
      "inclination_deg": 87.9192,
      "raan_deg": 21.1051,
      "arg_perigee_deg": 92.5927,
      "mean_anomaly_deg": 267.5388,
      "mean_motion_rev_day": 13.17651655
    },
    {
      "epoch": "2026-04-02T13:01:25.655520Z",
      "apogee_km": 1194.9177343634128,
      "perigee_km": 1192.4886880236627,
      "latitude_deg": -2.0844546038388285e-05,
      "longitude_deg": -5.382623103195755,
      "height_km": 1196.638297683616,
      "semi_major_axis_km": 7571.8402111935375,
      "eccentricity": 0.0001604,
      "inclination_deg": 87.9193,
      "raan_deg": 20.8641,
      "arg_perigee_deg": 91.8474,
      "mean_anomaly_deg": 268.2841,
      "mean_motion_rev_day": 13.17651623
    },
    {
      "epoch": "2026-04-03T18:10:59.624256Z",
      "apogee_km": 1194.9272774190777,
      "perigee_km": 1192.477030268893,
      "latitude_deg": 1.8803021964347444e-05,
      "longitude_deg": -84.2124932817912,
      "height_km": 1196.6371617695986,
      "semi_major_axis_km": 7571.839153843985,
      "eccentricity": 0.0001618,
      "inclination_deg": 87.9194,
      "raan_deg": 20.6233,
      "arg_perigee_deg": 91.8291,
      "mean_anomaly_deg": 268.3026,
      "mean_motion_rev_day": 13.17651899
    },
    {
      "epoch": "2026-04-04T05:07:04.882944Z",
      "apogee_km": 1194.9347248475096,
      "perigee_km": 1192.472210890549,
      "latitude_deg": -7.057059197672716e-05,
      "longitude_deg": 111.22611603110603,
      "height_km": 1196.6462637142813,
      "semi_major_axis_km": 7571.8404678690285,
      "eccentricity": 0.00016261,
      "inclination_deg": 87.9193,
      "raan_deg": 20.5329,
      "arg_perigee_deg": 92.1826,
      "mean_anomaly_deg": 267.9491,
      "mean_motion_rev_day": 13.17651556
    },
    {
      "epoch": "2026-04-05T12:06:00.019296Z",
      "apogee_km": 1194.9501567618654,
      "perigee_km": 1192.470831018466,
      "latitude_deg": 8.93585159529727e-06,
      "longitude_deg": 4.967997652599201,
      "height_km": 1196.6635333765748,
      "semi_major_axis_km": 7571.847493890165,
      "eccentricity": 0.00016372,
      "inclination_deg": 87.9193,
      "raan_deg": 20.2769,
      "arg_perigee_deg": 92.6431,
      "mean_anomaly_deg": 267.4888,
      "mean_motion_rev_day": 13.17649722
    },
    {
      "epoch": "2026-04-05T17:34:02.709120Z",
      "apogee_km": 1194.9557300467623,
      "perigee_km": 1192.4691346931722,
      "latitude_deg": -4.6722228025267164e-05,
      "longitude_deg": -77.31305107483061,
      "height_km": 1196.6650013946692,
      "semi_major_axis_km": 7571.849432369967,
      "eccentricity": 0.0001642,
      "inclination_deg": 87.9196,
      "raan_deg": 20.2316,
      "arg_perigee_deg": 92.6136,
      "mean_anomaly_deg": 267.5183,
      "mean_motion_rev_day": 13.17649216
    },
    {
      "epoch": "2026-04-06T06:19:28.920288Z",
      "apogee_km": 1194.9775949734258,
      "perigee_km": 1192.4455688076414,
      "latitude_deg": 1.7768768175228515e-05,
      "longitude_deg": 90.6987140131217,
      "height_km": 1196.6755816039367,
      "semi_major_axis_km": 7571.848581890534,
      "eccentricity": 0.0001672,
      "inclination_deg": 87.9195,
      "raan_deg": 20.1265,
      "arg_perigee_deg": 93.0873,
      "mean_anomaly_deg": 267.045,
      "mean_motion_rev_day": 13.17649438
    },
    {
      "epoch": "2026-04-07T06:01:00.523200Z",
      "apogee_km": 1194.9986005565106,
      "perigee_km": 1192.43810195093,
      "latitude_deg": 4.7677134664406854e-06,
      "longitude_deg": 94.14843171824647,
      "height_km": 1196.6856680862797,
      "semi_major_axis_km": 7571.85535125372,
      "eccentricity": 0.00016908,
      "inclination_deg": 87.9194,
      "raan_deg": 19.9309,
      "arg_perigee_deg": 93.2031,
      "mean_anomaly_deg": 266.9294,
      "mean_motion_rev_day": 13.17647671
    },
    {
      "epoch": "2026-04-07T18:46:26.778432Z",
      "apogee_km": 1195.00972896222,
      "perigee_km": 1192.4246979337486,
      "latitude_deg": 2.222045252760956e-05,
      "longitude_deg": -97.8402894211247,
      "height_km": 1196.688449712266,
      "semi_major_axis_km": 7571.854213447984,
      "eccentricity": 0.0001707,
      "inclination_deg": 87.9194,
      "raan_deg": 19.8255,
      "arg_perigee_deg": 93.348,
      "mean_anomaly_deg": 266.7847,
      "mean_motion_rev_day": 13.17647968
    },
    {
      "epoch": "2026-04-08T05:42:32.147712Z",
      "apogee_km": 1195.0017876588854,
      "perigee_km": 1192.4341716352865,
      "latitude_deg": -4.5635717695511425e-05,
      "longitude_deg": 97.59785745576654,
      "height_km": 1196.6897965365808,
      "semi_major_axis_km": 7571.854979647085,
      "eccentricity": 0.00016955,
      "inclination_deg": 87.9192,
      "raan_deg": 19.7351,
      "arg_perigee_deg": 93.3954,
      "mean_anomaly_deg": 266.7371,
      "mean_motion_rev_day": 13.17647768
    },
    {
      "epoch": "2026-04-09T19:58:50.930688Z",
      "apogee_km": 1195.0212612656142,
      "perigee_km": 1192.4195710574213,
      "latitude_deg": 9.375193697445233e-06,
      "longitude_deg": -118.36847816268649,
      "height_km": 1196.7059305725704,
      "semi_major_axis_km": 7571.857416161518,
      "eccentricity": 0.0001718,
      "inclination_deg": 87.9191,
      "raan_deg": 19.4188,
      "arg_perigee_deg": 93.9574,
      "mean_anomaly_deg": 266.1754,
      "mean_motion_rev_day": 13.17647132
    },
    {
      "epoch": "2026-04-10T05:05:35.342304Z",
      "apogee_km": 1195.028486395191,
      "perigee_km": 1192.4081701402902,
      "latitude_deg": 6.779322886066298e-05,
      "longitude_deg": 104.4969441909584,
      "height_km": 1196.7032509601888,
      "semi_major_axis_km": 7571.85532826774,
      "eccentricity": 0.00017303,
      "inclination_deg": 87.9191,
      "raan_deg": 19.3435,
      "arg_perigee_deg": 93.9046,
      "mean_anomaly_deg": 266.2284,
      "mean_motion_rev_day": 13.17647677
    }
  ]
}